[Satellite]
VERSION=1.1
NAME=GPS BIIF-5
NICKNAME=GPS BIIF-5
TLE1=1 39533U 14008A   17185.50203763 -.00000063  00000-0  00000-0 0  9994
TLE2=2 39533  54.2964 283.1593 0029654 184.5673 175.4388  2.00565180 24128
